[{"OBJECT_NAME":"STARLINK-3549","OBJECT_ID":"2022-022AR","EPOCH":"2026-03-09T22:37:42.045600","MEAN_MOTION":15.08842722,"ECCENTRICITY":0.00016581,"INCLINATION":53.2191,"RA_OF_ASC_NODE":357.9854,"ARG_OF_PERICENTER":94.6589,"MEAN_ANOMALY":265.4592,"EPHEMERIS_TYPE":0,"CLASSIFICATION_TYPE":"U","NORAD_CAT_ID":51891,"ELEMENT_SET_NO":999,"REV_AT_EPOCH":22333,"BSTAR":-1.3633461e-5,"MEAN_MOTION_DOT":-5.05e-6,"MEAN_MOTION_DDOT":0},{"OBJECT_NAME":"OBJECT B","OBJECT_ID":"2025-226B","EPOCH":"2026-03-09T23:02:31.139232","MEAN_MOTION":15.09715314,"ECCENTRICITY":0.00204156,"INCLINATION":97.6443,"RA_OF_ASC_NODE":147.8366,"ARG_OF_PERICENTER":114.3969,"MEAN_ANOMALY":245.9393,"EPHEMERIS_TYPE":0,"CLASSIFICATION_TYPE":"U","NORAD_CAT_ID":65939,"ELEMENT_SET_NO":999,"REV_AT_EPOCH":2260,"BSTAR":0.00038297064,"MEAN_MOTION_DOT":6.14e-5,"MEAN_MOTION_DDOT":0}]
